{
    "links": {
        "self": "http://www.neowsapp.com/rest/v1/neo/3884028?api_key=iIulBulltgU6a56xZRHN4H3l9WmuAYTsLGpBGhQ2"
    },
    "id": "3884028",
    "neo_reference_id": "3884028",
    "name": "(2019 UP9)",
    "designation": "2019 UP9",
    "nasa_jpl_url": "http://ssd.jpl.nasa.gov/sbdb.cgi?sstr=3884028",
    "absolute_magnitude_h": 23.9,
    "estimated_diameter": {
        "kilometers": {
            "estimated_diameter_min": 0.04411182,
            "estimated_diameter_max": 0.0986370281
        },
        "meters": {
            "estimated_diameter_min": 44.1118199997,
            "estimated_diameter_max": 98.6370281305
        },
        "miles": {
            "estimated_diameter_min": 0.0274098057,
            "estimated_diameter_max": 0.0612901888
        },
        "feet": {
            "estimated_diameter_min": 144.7238235278,
            "estimated_diameter_max": 323.6123073718
        }
    },
    "is_potentially_hazardous_asteroid": false,
    "close_approach_data": [
        {
            "close_approach_date": "1957-06-25",
            "close_approach_date_full": "1957-Jun-25 17:08",
            "epoch_date_close_approach": -395045520000,
            "relative_velocity": {
                "kilometers_per_second": "9.0696134615",
                "kilometers_per_hour": "32650.6084615365",
                "miles_per_hour": "20287.8183521142"
            },
            "miss_distance": {
                "astronomical": "1.6427841257",
                "lunar": "639.0430248973",
                "kilometers": "245757006.074532259",
                "miles": "152706322.4884488142"
            },
            "orbiting_body": "Juptr"
        },
        {
            "close_approach_date": "2016-09-27",
            "close_approach_date_full": "2016-Sep-27 12:06",
            "epoch_date_close_approach": 1474977960000,
            "relative_velocity": {
                "kilometers_per_second": "5.1128127934",
                "kilometers_per_hour": "18406.1260563535",
                "miles_per_hour": "11436.850937627"
            },
            "miss_distance": {
                "astronomical": "0.309838088",
                "lunar": "120.527016232",
                "kilometers": "46351118.00967256",
                "miles": "28801249.199538928"
            },
            "orbiting_body": "Juptr"
        },
        {
            "close_approach_date": "2019-09-19",
            "close_approach_date_full": "2019-Sep-19 02:46",
            "epoch_date_close_approach": 1568861160000,
            "relative_velocity": {
                "kilometers_per_second": "6.6589518858",
                "kilometers_per_hour": "23972.2267890347",
                "miles_per_hour": "14895.4094734422"
            },
            "miss_distance": {
                "astronomical": "0.1807474293",
                "lunar": "70.3107499977",
                "kilometers": "27039430.431255591",
                "miles": "16801522.9730095158"
            },
            "orbiting_body": "Earth"
        },
        {
            "close_approach_date": "2028-12-26",
            "close_approach_date_full": "2028-Dec-26 03:42",
            "epoch_date_close_approach": 1861414920000,
            "relative_velocity": {
                "kilometers_per_second": "6.1236575667",
                "kilometers_per_hour": "22045.1672401781",
                "miles_per_hour": "13698.0096109873"
            },
            "miss_distance": {
                "astronomical": "0.6574926546",
                "lunar": "255.7646426394",
                "kilometers": "98359500.668805702",
                "miles": "61117759.6474226076"
            },
            "orbiting_body": "Juptr"
        },
        {
            "close_approach_date": "2076-01-25",
            "close_approach_date_full": "2076-Jan-25 07:51",
            "epoch_date_close_approach": 3347164260000,
            "relative_velocity": {
                "kilometers_per_second": "9.5304860697",
                "kilometers_per_hour": "34309.7498510386",
                "miles_per_hour": "21318.7442893856"
            },
            "miss_distance": {
                "astronomical": "1.7516101278",
                "lunar": "681.3763397142",
                "kilometers": "262037144.189307786",
                "miles": "162822331.2274120068"
            },
            "orbiting_body": "Juptr"
        }
    ],
    "orbital_data": {
        "orbit_id": "1",
        "orbit_determination_date": "2019-10-28 03:42:16",
        "first_observation_date": "2019-10-06",
        "last_observation_date": "2019-10-28",
        "data_arc_in_days": 22,
        "observations_used": 20,
        "orbit_uncertainty": "7",
        "minimum_orbit_intersection": ".166526",
        "jupiter_tisserand_invariant": "2.832",
        "epoch_osculation": "2459000.5",
        "eccentricity": ".6396759663549636",
        "semi_major_axis": "3.18968587644411",
        "inclination": "4.188437724635248",
        "ascending_node_longitude": "104.8015121543774",
        "orbital_period": "2080.751900423543",
        "perihelion_distance": "1.149320481060945",
        "perihelion_argument": "260.798368689868",
        "aphelion_distance": "5.230051271827275",
        "perihelion_time": "2458751.564105790355",
        "mean_anomaly": "43.0694893981499",
        "mean_motion": ".1730143800069201",
        "equinox": "J2000",
        "orbit_class": {
            "orbit_class_type": "AMO",
            "orbit_class_description": "Near-Earth asteroid orbits similar to that of 1221 Amor",
            "orbit_class_range": "1.017 AU < q (perihelion) < 1.3 AU"
        }
    },
    "is_sentry_object": false
}